<?xml version="1.0" encoding="UTF-8"?>
<gpx version="1.1" creator="Kapteins Daagbok Demo" xmlns="http://www.topografix.com/GPX/1/1">
  <metadata>
    <name>Damp → Schleimünde</name>
    <desc>Demo track Damp to Schleimünde, ~12 sm</desc>
    <time>2026-05-31T08:30:00Z</time>
  </metadata>
  <trk>
    <name>Damp → Schleimünde</name>
    <type>sailing</type>
    <trkseg>
      <trkpt lat="54.455000" lon="10.729000">
        <time>2026-05-31T08:30:00.000Z</time>
        <ele>1.0</ele>
        <speed>2.099</speed>
        <course>275.0</course>
      </trkpt>
      <trkpt lat="54.455055" lon="10.727853">
        <time>2026-05-31T08:30:30.100Z</time>
        <ele>1.0</ele>
        <speed>2.387</speed>
        <course>275.0</course>
      </trkpt>
      <trkpt lat="54.455141" lon="10.726054">
        <time>2026-05-31T08:31:00.200Z</time>
        <ele>1.0</ele>
        <speed>2.630</speed>
        <course>275.0</course>
      </trkpt>
      <trkpt lat="54.455244" lon="10.723883">
        <time>2026-05-31T08:31:30.301Z</time>
        <ele>1.0</ele>
        <speed>2.789</speed>
        <course>275.0</course>
      </trkpt>
      <trkpt lat="54.455358" lon="10.721501">
        <time>2026-05-31T08:32:00.401Z</time>
        <ele>1.0</ele>
        <speed>2.839</speed>
        <course>275.0</course>
      </trkpt>
      <trkpt lat="54.455478" lon="10.718998">
        <time>2026-05-31T08:32:30.501Z</time>
        <ele>1.0</ele>
        <speed>2.773</speed>
        <course>275.0</course>
      </trkpt>
      <trkpt lat="54.455600" lon="10.716426">
        <time>2026-05-31T08:33:00.602Z</time>
        <ele>1.0</ele>
        <speed>2.599</speed>
        <course>275.0</course>
      </trkpt>
      <trkpt lat="54.455725" lon="10.713816">
        <time>2026-05-31T08:33:30.702Z</time>
        <ele>1.0</ele>
        <speed>2.347</speed>
        <course>275.0</course>
      </trkpt>
      <trkpt lat="54.455851" lon="10.711183">
        <time>2026-05-31T08:34:00.802Z</time>
        <ele>1.0</ele>
        <speed>2.056</speed>
        <course>275.0</course>
      </trkpt>
      <trkpt lat="54.455977" lon="10.708538">
        <time>2026-05-31T08:34:30.903Z</time>
        <ele>1.0</ele>
        <speed>1.771</speed>
        <course>275.0</course>
      </trkpt>
      <trkpt lat="54.456104" lon="10.705885">
        <time>2026-05-31T08:35:01.003Z</time>
        <ele>1.0</ele>
        <speed>1.538</speed>
        <course>275.0</course>
      </trkpt>
      <trkpt lat="54.456230" lon="10.703228">
        <time>2026-05-31T08:35:31.103Z</time>
        <ele>1.0</ele>
        <speed>1.394</speed>
        <course>275.0</course>
      </trkpt>
      <trkpt lat="54.456357" lon="10.700569">
        <time>2026-05-31T08:36:01.204Z</time>
        <ele>1.0</ele>
        <speed>1.361</speed>
        <course>275.0</course>
      </trkpt>
      <trkpt lat="54.456484" lon="10.697909">
        <time>2026-05-31T08:36:31.304Z</time>
        <ele>1.0</ele>
        <speed>1.444</speed>
        <course>275.0</course>
      </trkpt>
      <trkpt lat="54.456611" lon="10.695247">
        <time>2026-05-31T08:37:01.404Z</time>
        <ele>1.0</ele>
        <speed>1.631</speed>
        <course>275.0</course>
      </trkpt>
      <trkpt lat="54.456738" lon="10.692586">
        <time>2026-05-31T08:37:31.505Z</time>
        <ele>1.0</ele>
        <speed>1.892</speed>
        <course>275.0</course>
      </trkpt>
      <trkpt lat="54.456866" lon="10.689924">
        <time>2026-05-31T08:38:01.605Z</time>
        <ele>1.0</ele>
        <speed>2.185</speed>
        <course>275.0</course>
      </trkpt>
      <trkpt lat="54.456993" lon="10.687262">
        <time>2026-05-31T08:38:31.705Z</time>
        <ele>1.0</ele>
        <speed>2.465</speed>
        <course>275.0</course>
      </trkpt>
      <trkpt lat="54.457120" lon="10.684600">
        <time>2026-05-31T08:39:01.806Z</time>
        <ele>1.0</ele>
        <speed>2.687</speed>
        <course>275.0</course>
      </trkpt>
      <trkpt lat="54.457247" lon="10.681938">
        <time>2026-05-31T08:39:31.906Z</time>
        <ele>1.0</ele>
        <speed>2.816</speed>
        <course>275.0</course>
      </trkpt>
      <trkpt lat="54.457374" lon="10.679275">
        <time>2026-05-31T08:40:02.006Z</time>
        <ele>1.0</ele>
        <speed>2.832</speed>
        <course>275.0</course>
      </trkpt>
      <trkpt lat="54.457501" lon="10.676613">
        <time>2026-05-31T08:40:32.107Z</time>
        <ele>1.0</ele>
        <speed>2.732</speed>
        <course>275.0</course>
      </trkpt>
      <trkpt lat="54.457628" lon="10.673951">
        <time>2026-05-31T08:41:02.207Z</time>
        <ele>1.0</ele>
        <speed>2.532</speed>
        <course>275.0</course>
      </trkpt>
      <trkpt lat="54.457755" lon="10.671289">
        <time>2026-05-31T08:41:32.307Z</time>
        <ele>1.0</ele>
        <speed>2.264</speed>
        <course>275.0</course>
      </trkpt>
      <trkpt lat="54.457882" lon="10.668627">
        <time>2026-05-31T08:42:02.408Z</time>
        <ele>1.0</ele>
        <speed>1.970</speed>
        <course>275.0</course>
      </trkpt>
      <trkpt lat="54.458009" lon="10.665964">
        <time>2026-05-31T08:42:32.508Z</time>
        <ele>1.0</ele>
        <speed>1.696</speed>
        <course>275.0</course>
      </trkpt>
      <trkpt lat="54.458136" lon="10.663302">
        <time>2026-05-31T08:43:02.608Z</time>
        <ele>1.0</ele>
        <speed>1.486</speed>
        <course>275.0</course>
      </trkpt>
      <trkpt lat="54.458264" lon="10.660640">
        <time>2026-05-31T08:43:32.709Z</time>
        <ele>1.0</ele>
        <speed>1.372</speed>
        <course>275.0</course>
      </trkpt>
      <trkpt lat="54.458391" lon="10.657978">
        <time>2026-05-31T08:44:02.809Z</time>
        <ele>1.0</ele>
        <speed>1.374</speed>
        <course>275.0</course>
      </trkpt>
      <trkpt lat="54.458518" lon="10.655316">
        <time>2026-05-31T08:44:32.909Z</time>
        <ele>1.0</ele>
        <speed>1.489</speed>
        <course>275.0</course>
      </trkpt>
      <trkpt lat="54.458645" lon="10.652653">
        <time>2026-05-31T08:45:03.010Z</time>
        <ele>1.0</ele>
        <speed>1.701</speed>
        <course>275.0</course>
      </trkpt>
      <trkpt lat="54.458772" lon="10.649991">
        <time>2026-05-31T08:45:33.110Z</time>
        <ele>1.0</ele>
        <speed>1.976</speed>
        <course>275.0</course>
      </trkpt>
      <trkpt lat="54.458899" lon="10.647329">
        <time>2026-05-31T08:46:03.210Z</time>
        <ele>1.0</ele>
        <speed>2.270</speed>
        <course>275.0</course>
      </trkpt>
      <trkpt lat="54.459026" lon="10.644667">
        <time>2026-05-31T08:46:33.311Z</time>
        <ele>1.0</ele>
        <speed>2.538</speed>
        <course>275.0</course>
      </trkpt>
      <trkpt lat="54.459153" lon="10.642004">
        <time>2026-05-31T08:47:03.411Z</time>
        <ele>1.0</ele>
        <speed>2.735</speed>
        <course>275.0</course>
      </trkpt>
      <trkpt lat="54.459280" lon="10.639342">
        <time>2026-05-31T08:47:33.511Z</time>
        <ele>1.0</ele>
        <speed>2.833</speed>
        <course>275.0</course>
      </trkpt>
      <trkpt lat="54.459407" lon="10.636680">
        <time>2026-05-31T08:48:03.612Z</time>
        <ele>1.0</ele>
        <speed>2.814</speed>
        <course>275.0</course>
      </trkpt>
      <trkpt lat="54.459534" lon="10.634018">
        <time>2026-05-31T08:48:33.712Z</time>
        <ele>1.0</ele>
        <speed>2.683</speed>
        <course>275.0</course>
      </trkpt>
      <trkpt lat="54.459662" lon="10.631356">
        <time>2026-05-31T08:49:03.812Z</time>
        <ele>1.0</ele>
        <speed>2.459</speed>
        <course>275.0</course>
      </trkpt>
      <trkpt lat="54.459789" lon="10.628693">
        <time>2026-05-31T08:49:33.913Z</time>
        <ele>1.0</ele>
        <speed>2.179</speed>
        <course>275.0</course>
      </trkpt>
      <trkpt lat="54.459916" lon="10.626031">
        <time>2026-05-31T08:50:04.013Z</time>
        <ele>1.0</ele>
        <speed>1.886</speed>
        <course>275.0</course>
      </trkpt>
      <trkpt lat="54.460043" lon="10.623369">
        <time>2026-05-31T08:50:34.113Z</time>
        <ele>1.0</ele>
        <speed>1.626</speed>
        <course>275.0</course>
      </trkpt>
      <trkpt lat="54.460170" lon="10.620707">
        <time>2026-05-31T08:51:04.214Z</time>
        <ele>1.0</ele>
        <speed>1.441</speed>
        <course>275.0</course>
      </trkpt>
      <trkpt lat="54.460297" lon="10.618045">
        <time>2026-05-31T08:51:34.314Z</time>
        <ele>1.0</ele>
        <speed>1.360</speed>
        <course>275.0</course>
      </trkpt>
      <trkpt lat="54.460424" lon="10.615382">
        <time>2026-05-31T08:52:04.414Z</time>
        <ele>1.0</ele>
        <speed>1.396</speed>
        <course>275.0</course>
      </trkpt>
      <trkpt lat="54.460551" lon="10.612720">
        <time>2026-05-31T08:52:34.515Z</time>
        <ele>1.0</ele>
        <speed>1.543</speed>
        <course>275.0</course>
      </trkpt>
      <trkpt lat="54.460678" lon="10.610058">
        <time>2026-05-31T08:53:04.615Z</time>
        <ele>1.0</ele>
        <speed>1.777</speed>
        <course>275.0</course>
      </trkpt>
      <trkpt lat="54.460805" lon="10.607396">
        <time>2026-05-31T08:53:34.715Z</time>
        <ele>1.0</ele>
        <speed>2.062</speed>
        <course>275.0</course>
      </trkpt>
      <trkpt lat="54.460932" lon="10.604734">
        <time>2026-05-31T08:54:04.816Z</time>
        <ele>1.0</ele>
        <speed>2.353</speed>
        <course>275.0</course>
      </trkpt>
      <trkpt lat="54.461059" lon="10.602071">
        <time>2026-05-31T08:54:34.916Z</time>
        <ele>1.0</ele>
        <speed>2.604</speed>
        <course>275.0</course>
      </trkpt>
      <trkpt lat="54.461187" lon="10.599409">
        <time>2026-05-31T08:55:05.016Z</time>
        <ele>1.0</ele>
        <speed>2.775</speed>
        <course>275.0</course>
      </trkpt>
      <trkpt lat="54.461314" lon="10.596747">
        <time>2026-05-31T08:55:35.117Z</time>
        <ele>1.0</ele>
        <speed>2.840</speed>
        <course>275.0</course>
      </trkpt>
      <trkpt lat="54.461441" lon="10.594085">
        <time>2026-05-31T08:56:05.217Z</time>
        <ele>1.0</ele>
        <speed>2.787</speed>
        <course>275.0</course>
      </trkpt>
      <trkpt lat="54.461568" lon="10.591423">
        <time>2026-05-31T08:56:35.317Z</time>
        <ele>1.0</ele>
        <speed>2.626</speed>
        <course>275.0</course>
      </trkpt>
      <trkpt lat="54.461695" lon="10.588760">
        <time>2026-05-31T08:57:05.418Z</time>
        <ele>1.0</ele>
        <speed>2.381</speed>
        <course>275.0</course>
      </trkpt>
      <trkpt lat="54.461822" lon="10.586098">
        <time>2026-05-31T08:57:35.518Z</time>
        <ele>1.0</ele>
        <speed>2.092</speed>
        <course>275.0</course>
      </trkpt>
      <trkpt lat="54.461949" lon="10.583436">
        <time>2026-05-31T08:58:05.618Z</time>
        <ele>1.0</ele>
        <speed>1.804</speed>
        <course>275.0</course>
      </trkpt>
      <trkpt lat="54.462076" lon="10.580774">
        <time>2026-05-31T08:58:35.719Z</time>
        <ele>1.0</ele>
        <speed>1.563</speed>
        <course>275.0</course>
      </trkpt>
      <trkpt lat="54.462203" lon="10.578112">
        <time>2026-05-31T08:59:05.819Z</time>
        <ele>1.0</ele>
        <speed>1.406</speed>
        <course>275.0</course>
      </trkpt>
      <trkpt lat="54.462330" lon="10.575449">
        <time>2026-05-31T08:59:35.919Z</time>
        <ele>1.0</ele>
        <speed>1.359</speed>
        <course>275.0</course>
      </trkpt>
      <trkpt lat="54.462457" lon="10.572787">
        <time>2026-05-31T09:00:06.020Z</time>
        <ele>1.0</ele>
        <speed>1.428</speed>
        <course>275.0</course>
      </trkpt>
      <trkpt lat="54.462585" lon="10.570125">
        <time>2026-05-31T09:00:36.120Z</time>
        <ele>1.0</ele>
        <speed>1.603</speed>
        <course>275.0</course>
      </trkpt>
      <trkpt lat="54.462712" lon="10.567463">
        <time>2026-05-31T09:01:06.220Z</time>
        <ele>1.0</ele>
        <speed>1.857</speed>
        <course>275.0</course>
      </trkpt>
      <trkpt lat="54.462839" lon="10.564800">
        <time>2026-05-31T09:01:36.321Z</time>
        <ele>1.0</ele>
        <speed>2.149</speed>
        <course>275.0</course>
      </trkpt>
      <trkpt lat="54.462966" lon="10.562138">
        <time>2026-05-31T09:02:06.421Z</time>
        <ele>1.0</ele>
        <speed>2.433</speed>
        <course>275.0</course>
      </trkpt>
      <trkpt lat="54.463093" lon="10.559476">
        <time>2026-05-31T09:02:36.521Z</time>
        <ele>1.0</ele>
        <speed>2.664</speed>
        <course>275.0</course>
      </trkpt>
      <trkpt lat="54.463220" lon="10.556814">
        <time>2026-05-31T09:03:06.622Z</time>
        <ele>1.0</ele>
        <speed>2.806</speed>
        <course>275.0</course>
      </trkpt>
      <trkpt lat="54.463347" lon="10.554152">
        <time>2026-05-31T09:03:36.722Z</time>
        <ele>1.0</ele>
        <speed>2.836</speed>
        <course>275.0</course>
      </trkpt>
      <trkpt lat="54.463474" lon="10.551489">
        <time>2026-05-31T09:04:06.822Z</time>
        <ele>1.0</ele>
        <speed>2.750</speed>
        <course>275.0</course>
      </trkpt>
      <trkpt lat="54.463601" lon="10.548827">
        <time>2026-05-31T09:04:36.923Z</time>
        <ele>1.0</ele>
        <speed>2.561</speed>
        <course>275.0</course>
      </trkpt>
      <trkpt lat="54.463728" lon="10.546165">
        <time>2026-05-31T09:05:07.023Z</time>
        <ele>1.0</ele>
        <speed>2.300</speed>
        <course>275.0</course>
      </trkpt>
      <trkpt lat="54.463855" lon="10.543503">
        <time>2026-05-31T09:05:37.123Z</time>
        <ele>1.0</ele>
        <speed>2.006</speed>
        <course>275.0</course>
      </trkpt>
      <trkpt lat="54.463983" lon="10.540841">
        <time>2026-05-31T09:06:07.224Z</time>
        <ele>1.0</ele>
        <speed>1.727</speed>
        <course>275.0</course>
      </trkpt>
      <trkpt lat="54.464110" lon="10.538178">
        <time>2026-05-31T09:06:37.324Z</time>
        <ele>1.0</ele>
        <speed>1.507</speed>
        <course>275.0</course>
      </trkpt>
      <trkpt lat="54.464237" lon="10.535516">
        <time>2026-05-31T09:07:07.424Z</time>
        <ele>1.0</ele>
        <speed>1.380</speed>
        <course>275.0</course>
      </trkpt>
      <trkpt lat="54.464364" lon="10.532854">
        <time>2026-05-31T09:07:37.525Z</time>
        <ele>1.0</ele>
        <speed>1.367</speed>
        <course>275.0</course>
      </trkpt>
      <trkpt lat="54.464491" lon="10.530192">
        <time>2026-05-31T09:08:07.625Z</time>
        <ele>1.0</ele>
        <speed>1.469</speed>
        <course>275.0</course>
      </trkpt>
      <trkpt lat="54.464618" lon="10.527530">
        <time>2026-05-31T09:08:37.725Z</time>
        <ele>1.0</ele>
        <speed>1.671</speed>
        <course>275.0</course>
      </trkpt>
      <trkpt lat="54.464745" lon="10.524867">
        <time>2026-05-31T09:09:07.826Z</time>
        <ele>1.0</ele>
        <speed>1.940</speed>
        <course>275.0</course>
      </trkpt>
      <trkpt lat="54.464872" lon="10.522205">
        <time>2026-05-31T09:09:37.926Z</time>
        <ele>1.0</ele>
        <speed>2.235</speed>
        <course>275.0</course>
      </trkpt>
      <trkpt lat="54.464999" lon="10.519543">
        <time>2026-05-31T09:10:08.026Z</time>
        <ele>1.0</ele>
        <speed>2.507</speed>
        <course>275.0</course>
      </trkpt>
      <trkpt lat="54.465126" lon="10.516881">
        <time>2026-05-31T09:10:38.127Z</time>
        <ele>1.0</ele>
        <speed>2.716</speed>
        <course>275.0</course>
      </trkpt>
      <trkpt lat="54.465253" lon="10.514219">
        <time>2026-05-31T09:11:08.227Z</time>
        <ele>1.0</ele>
        <speed>2.827</speed>
        <course>275.0</course>
      </trkpt>
      <trkpt lat="54.465381" lon="10.511556">
        <time>2026-05-31T09:11:38.327Z</time>
        <ele>1.0</ele>
        <speed>2.823</speed>
        <course>275.0</course>
      </trkpt>
      <trkpt lat="54.465508" lon="10.508894">
        <time>2026-05-31T09:12:08.428Z</time>
        <ele>1.0</ele>
        <speed>2.705</speed>
        <course>275.0</course>
      </trkpt>
      <trkpt lat="54.465635" lon="10.506232">
        <time>2026-05-31T09:12:38.528Z</time>
        <ele>1.0</ele>
        <speed>2.491</speed>
        <course>275.0</course>
      </trkpt>
      <trkpt lat="54.465762" lon="10.503570">
        <time>2026-05-31T09:13:08.628Z</time>
        <ele>1.0</ele>
        <speed>2.215</speed>
        <course>275.0</course>
      </trkpt>
      <trkpt lat="54.465889" lon="10.500907">
        <time>2026-05-31T09:13:38.729Z</time>
        <ele>1.0</ele>
        <speed>1.921</speed>
        <course>275.0</course>
      </trkpt>
      <trkpt lat="54.466016" lon="10.498245">
        <time>2026-05-31T09:14:08.829Z</time>
        <ele>1.0</ele>
        <speed>1.655</speed>
        <course>275.0</course>
      </trkpt>
      <trkpt lat="54.466143" lon="10.495583">
        <time>2026-05-31T09:14:38.929Z</time>
        <ele>1.0</ele>
        <speed>1.459</speed>
        <course>275.0</course>
      </trkpt>
      <trkpt lat="54.466270" lon="10.492921">
        <time>2026-05-31T09:15:09.030Z</time>
        <ele>1.0</ele>
        <speed>1.364</speed>
        <course>275.0</course>
      </trkpt>
      <trkpt lat="54.466397" lon="10.490259">
        <time>2026-05-31T09:15:39.130Z</time>
        <ele>1.0</ele>
        <speed>1.385</speed>
        <course>275.0</course>
      </trkpt>
      <trkpt lat="54.466524" lon="10.487596">
        <time>2026-05-31T09:16:09.230Z</time>
        <ele>1.0</ele>
        <speed>1.519</speed>
        <course>275.0</course>
      </trkpt>
      <trkpt lat="54.466651" lon="10.484934">
        <time>2026-05-31T09:16:39.331Z</time>
        <ele>1.0</ele>
        <speed>1.744</speed>
        <course>275.0</course>
      </trkpt>
      <trkpt lat="54.466779" lon="10.482272">
        <time>2026-05-31T09:17:09.431Z</time>
        <ele>1.0</ele>
        <speed>2.026</speed>
        <course>275.0</course>
      </trkpt>
      <trkpt lat="54.466906" lon="10.479610">
        <time>2026-05-31T09:17:39.531Z</time>
        <ele>1.0</ele>
        <speed>2.318</speed>
        <course>275.0</course>
      </trkpt>
      <trkpt lat="54.467033" lon="10.476948">
        <time>2026-05-31T09:18:09.632Z</time>
        <ele>1.0</ele>
        <speed>2.577</speed>
        <course>275.0</course>
      </trkpt>
      <trkpt lat="54.467160" lon="10.474285">
        <time>2026-05-31T09:18:39.732Z</time>
        <ele>1.0</ele>
        <speed>2.759</speed>
        <course>275.0</course>
      </trkpt>
      <trkpt lat="54.467287" lon="10.471623">
        <time>2026-05-31T09:19:09.832Z</time>
        <ele>1.0</ele>
        <speed>2.838</speed>
        <course>275.0</course>
      </trkpt>
      <trkpt lat="54.467414" lon="10.468961">
        <time>2026-05-31T09:19:39.933Z</time>
        <ele>1.0</ele>
        <speed>2.800</speed>
        <course>275.0</course>
      </trkpt>
      <trkpt lat="54.467541" lon="10.466299">
        <time>2026-05-31T09:20:10.033Z</time>
        <ele>1.0</ele>
        <speed>2.651</speed>
        <course>275.0</course>
      </trkpt>
      <trkpt lat="54.467668" lon="10.463637">
        <time>2026-05-31T09:20:40.133Z</time>
        <ele>1.0</ele>
        <speed>2.415</speed>
        <course>275.0</course>
      </trkpt>
      <trkpt lat="54.467795" lon="10.460974">
        <time>2026-05-31T09:21:10.234Z</time>
        <ele>1.0</ele>
        <speed>2.129</speed>
        <course>275.0</course>
      </trkpt>
      <trkpt lat="54.467922" lon="10.458312">
        <time>2026-05-31T09:21:40.334Z</time>
        <ele>1.0</ele>
        <speed>1.838</speed>
        <course>275.0</course>
      </trkpt>
      <trkpt lat="54.468049" lon="10.455650">
        <time>2026-05-31T09:22:10.434Z</time>
        <ele>1.0</ele>
        <speed>1.589</speed>
        <course>275.0</course>
      </trkpt>
      <trkpt lat="54.468177" lon="10.452988">
        <time>2026-05-31T09:22:40.535Z</time>
        <ele>1.0</ele>
        <speed>1.420</speed>
        <course>275.0</course>
      </trkpt>
      <trkpt lat="54.468304" lon="10.450326">
        <time>2026-05-31T09:23:10.635Z</time>
        <ele>1.0</ele>
        <speed>1.358</speed>
        <course>275.0</course>
      </trkpt>
      <trkpt lat="54.468431" lon="10.447663">
        <time>2026-05-31T09:23:40.735Z</time>
        <ele>1.0</ele>
        <speed>1.413</speed>
        <course>275.0</course>
      </trkpt>
      <trkpt lat="54.468558" lon="10.445001">
        <time>2026-05-31T09:24:10.836Z</time>
        <ele>1.0</ele>
        <speed>1.577</speed>
        <course>275.0</course>
      </trkpt>
      <trkpt lat="54.468685" lon="10.442339">
        <time>2026-05-31T09:24:40.936Z</time>
        <ele>1.0</ele>
        <speed>1.823</speed>
        <course>275.0</course>
      </trkpt>
      <trkpt lat="54.468812" lon="10.439677">
        <time>2026-05-31T09:25:11.036Z</time>
        <ele>1.0</ele>
        <speed>2.112</speed>
        <course>275.0</course>
      </trkpt>
      <trkpt lat="54.468939" lon="10.437015">
        <time>2026-05-31T09:25:41.137Z</time>
        <ele>1.0</ele>
        <speed>2.399</speed>
        <course>275.0</course>
      </trkpt>
      <trkpt lat="54.469066" lon="10.434352">
        <time>2026-05-31T09:26:11.237Z</time>
        <ele>1.0</ele>
        <speed>2.639</speed>
        <course>275.0</course>
      </trkpt>
      <trkpt lat="54.469193" lon="10.431690">
        <time>2026-05-31T09:26:41.337Z</time>
        <ele>1.0</ele>
        <speed>2.794</speed>
        <course>275.0</course>
      </trkpt>
      <trkpt lat="54.469320" lon="10.429028">
        <time>2026-05-31T09:27:11.438Z</time>
        <ele>1.0</ele>
        <speed>2.839</speed>
        <course>275.0</course>
      </trkpt>
      <trkpt lat="54.469447" lon="10.426366">
        <time>2026-05-31T09:27:41.538Z</time>
        <ele>1.0</ele>
        <speed>2.767</speed>
        <course>275.0</course>
      </trkpt>
      <trkpt lat="54.469575" lon="10.423703">
        <time>2026-05-31T09:28:11.638Z</time>
        <ele>1.0</ele>
        <speed>2.590</speed>
        <course>275.0</course>
      </trkpt>
      <trkpt lat="54.469702" lon="10.421041">
        <time>2026-05-31T09:28:41.739Z</time>
        <ele>1.0</ele>
        <speed>2.335</speed>
        <course>275.0</course>
      </trkpt>
      <trkpt lat="54.469829" lon="10.418379">
        <time>2026-05-31T09:29:11.839Z</time>
        <ele>1.0</ele>
        <speed>2.043</speed>
        <course>275.0</course>
      </trkpt>
      <trkpt lat="54.469956" lon="10.415717">
        <time>2026-05-31T09:29:41.939Z</time>
        <ele>1.0</ele>
        <speed>1.759</speed>
        <course>275.0</course>
      </trkpt>
      <trkpt lat="54.470083" lon="10.413055">
        <time>2026-05-31T09:30:12.040Z</time>
        <ele>1.0</ele>
        <speed>1.530</speed>
        <course>275.0</course>
      </trkpt>
      <trkpt lat="54.470210" lon="10.410392">
        <time>2026-05-31T09:30:42.140Z</time>
        <ele>1.0</ele>
        <speed>1.390</speed>
        <course>275.0</course>
      </trkpt>
      <trkpt lat="54.470337" lon="10.407730">
        <time>2026-05-31T09:31:12.240Z</time>
        <ele>1.0</ele>
        <speed>1.362</speed>
        <course>275.0</course>
      </trkpt>
      <trkpt lat="54.470464" lon="10.405068">
        <time>2026-05-31T09:31:42.341Z</time>
        <ele>1.0</ele>
        <speed>1.451</speed>
        <course>275.0</course>
      </trkpt>
      <trkpt lat="54.470591" lon="10.402406">
        <time>2026-05-31T09:32:12.441Z</time>
        <ele>1.0</ele>
        <speed>1.642</speed>
        <course>275.0</course>
      </trkpt>
      <trkpt lat="54.470718" lon="10.399744">
        <time>2026-05-31T09:32:42.541Z</time>
        <ele>1.0</ele>
        <speed>1.905</speed>
        <course>275.0</course>
      </trkpt>
      <trkpt lat="54.470845" lon="10.397081">
        <time>2026-05-31T09:33:12.642Z</time>
        <ele>1.0</ele>
        <speed>2.198</speed>
        <course>275.0</course>
      </trkpt>
      <trkpt lat="54.470973" lon="10.394419">
        <time>2026-05-31T09:33:42.742Z</time>
        <ele>1.0</ele>
        <speed>2.476</speed>
        <course>275.0</course>
      </trkpt>
      <trkpt lat="54.471100" lon="10.391757">
        <time>2026-05-31T09:34:12.842Z</time>
        <ele>1.0</ele>
        <speed>2.695</speed>
        <course>275.0</course>
      </trkpt>
      <trkpt lat="54.471227" lon="10.389095">
        <time>2026-05-31T09:34:42.943Z</time>
        <ele>1.0</ele>
        <speed>2.819</speed>
        <course>275.0</course>
      </trkpt>
      <trkpt lat="54.471354" lon="10.386433">
        <time>2026-05-31T09:35:13.043Z</time>
        <ele>1.0</ele>
        <speed>2.830</speed>
        <course>275.0</course>
      </trkpt>
      <trkpt lat="54.471481" lon="10.383770">
        <time>2026-05-31T09:35:43.143Z</time>
        <ele>1.0</ele>
        <speed>2.725</speed>
        <course>275.0</course>
      </trkpt>
      <trkpt lat="54.471608" lon="10.381108">
        <time>2026-05-31T09:36:13.244Z</time>
        <ele>1.0</ele>
        <speed>2.522</speed>
        <course>275.0</course>
      </trkpt>
      <trkpt lat="54.471735" lon="10.378446">
        <time>2026-05-31T09:36:43.344Z</time>
        <ele>1.0</ele>
        <speed>2.251</speed>
        <course>275.0</course>
      </trkpt>
      <trkpt lat="54.471862" lon="10.375784">
        <time>2026-05-31T09:37:13.444Z</time>
        <ele>1.0</ele>
        <speed>1.957</speed>
        <course>275.0</course>
      </trkpt>
      <trkpt lat="54.471989" lon="10.373122">
        <time>2026-05-31T09:37:43.545Z</time>
        <ele>1.0</ele>
        <speed>1.685</speed>
        <course>275.0</course>
      </trkpt>
      <trkpt lat="54.472116" lon="10.370459">
        <time>2026-05-31T09:38:13.645Z</time>
        <ele>1.0</ele>
        <speed>1.478</speed>
        <course>275.0</course>
      </trkpt>
      <trkpt lat="54.472243" lon="10.367797">
        <time>2026-05-31T09:38:43.745Z</time>
        <ele>1.0</ele>
        <speed>1.370</speed>
        <course>275.0</course>
      </trkpt>
      <trkpt lat="54.472371" lon="10.365135">
        <time>2026-05-31T09:39:13.846Z</time>
        <ele>1.0</ele>
        <speed>1.376</speed>
        <course>275.0</course>
      </trkpt>
      <trkpt lat="54.472498" lon="10.362473">
        <time>2026-05-31T09:39:43.946Z</time>
        <ele>1.0</ele>
        <speed>1.497</speed>
        <course>275.0</course>
      </trkpt>
      <trkpt lat="54.472625" lon="10.359810">
        <time>2026-05-31T09:40:14.046Z</time>
        <ele>1.0</ele>
        <speed>1.713</speed>
        <course>275.0</course>
      </trkpt>
      <trkpt lat="54.472752" lon="10.357148">
        <time>2026-05-31T09:40:44.147Z</time>
        <ele>1.0</ele>
        <speed>1.989</speed>
        <course>275.0</course>
      </trkpt>
      <trkpt lat="54.472879" lon="10.354486">
        <time>2026-05-31T09:41:14.247Z</time>
        <ele>1.0</ele>
        <speed>2.283</speed>
        <course>275.0</course>
      </trkpt>
      <trkpt lat="54.473006" lon="10.351824">
        <time>2026-05-31T09:41:44.347Z</time>
        <ele>1.0</ele>
        <speed>2.548</speed>
        <course>275.0</course>
      </trkpt>
      <trkpt lat="54.473133" lon="10.349162">
        <time>2026-05-31T09:42:14.448Z</time>
        <ele>1.0</ele>
        <speed>2.742</speed>
        <course>275.0</course>
      </trkpt>
      <trkpt lat="54.473260" lon="10.346499">
        <time>2026-05-31T09:42:44.548Z</time>
        <ele>1.0</ele>
        <speed>2.834</speed>
        <course>275.0</course>
      </trkpt>
      <trkpt lat="54.473387" lon="10.343837">
        <time>2026-05-31T09:43:14.648Z</time>
        <ele>1.0</ele>
        <speed>2.811</speed>
        <course>275.0</course>
      </trkpt>
      <trkpt lat="54.473514" lon="10.341175">
        <time>2026-05-31T09:43:44.749Z</time>
        <ele>1.0</ele>
        <speed>2.675</speed>
        <course>275.0</course>
      </trkpt>
      <trkpt lat="54.473641" lon="10.338513">
        <time>2026-05-31T09:44:14.849Z</time>
        <ele>1.0</ele>
        <speed>2.448</speed>
        <course>275.0</course>
      </trkpt>
      <trkpt lat="54.473769" lon="10.335851">
        <time>2026-05-31T09:44:44.949Z</time>
        <ele>1.0</ele>
        <speed>2.166</speed>
        <course>275.0</course>
      </trkpt>
      <trkpt lat="54.473896" lon="10.333188">
        <time>2026-05-31T09:45:15.050Z</time>
        <ele>1.0</ele>
        <speed>1.873</speed>
        <course>275.0</course>
      </trkpt>
      <trkpt lat="54.474023" lon="10.330526">
        <time>2026-05-31T09:45:45.150Z</time>
        <ele>1.0</ele>
        <speed>1.616</speed>
        <course>275.0</course>
      </trkpt>
      <trkpt lat="54.474150" lon="10.327864">
        <time>2026-05-31T09:46:15.250Z</time>
        <ele>1.0</ele>
        <speed>1.435</speed>
        <course>275.0</course>
      </trkpt>
      <trkpt lat="54.474277" lon="10.325202">
        <time>2026-05-31T09:46:45.351Z</time>
        <ele>1.0</ele>
        <speed>1.360</speed>
        <course>275.0</course>
      </trkpt>
      <trkpt lat="54.474404" lon="10.322540">
        <time>2026-05-31T09:47:15.451Z</time>
        <ele>1.0</ele>
        <speed>1.400</speed>
        <course>275.0</course>
      </trkpt>
      <trkpt lat="54.474531" lon="10.319877">
        <time>2026-05-31T09:47:45.551Z</time>
        <ele>1.0</ele>
        <speed>1.551</speed>
        <course>275.0</course>
      </trkpt>
      <trkpt lat="54.474658" lon="10.317215">
        <time>2026-05-31T09:48:15.652Z</time>
        <ele>1.0</ele>
        <speed>1.789</speed>
        <course>275.0</course>
      </trkpt>
      <trkpt lat="54.474785" lon="10.314553">
        <time>2026-05-31T09:48:45.752Z</time>
        <ele>1.0</ele>
        <speed>2.075</speed>
        <course>275.0</course>
      </trkpt>
      <trkpt lat="54.474912" lon="10.311891">
        <time>2026-05-31T09:49:15.852Z</time>
        <ele>1.0</ele>
        <speed>2.366</speed>
        <course>275.0</course>
      </trkpt>
      <trkpt lat="54.475039" lon="10.309229">
        <time>2026-05-31T09:49:45.953Z</time>
        <ele>1.0</ele>
        <speed>2.614</speed>
        <course>275.0</course>
      </trkpt>
      <trkpt lat="54.475167" lon="10.306566">
        <time>2026-05-31T09:50:16.053Z</time>
        <ele>1.0</ele>
        <speed>2.780</speed>
        <course>275.0</course>
      </trkpt>
      <trkpt lat="54.475294" lon="10.303904">
        <time>2026-05-31T09:50:46.153Z</time>
        <ele>1.0</ele>
        <speed>2.840</speed>
        <course>275.0</course>
      </trkpt>
      <trkpt lat="54.475421" lon="10.301242">
        <time>2026-05-31T09:51:16.254Z</time>
        <ele>1.0</ele>
        <speed>2.782</speed>
        <course>275.0</course>
      </trkpt>
      <trkpt lat="54.475548" lon="10.298580">
        <time>2026-05-31T09:51:46.354Z</time>
        <ele>1.0</ele>
        <speed>2.616</speed>
        <course>275.0</course>
      </trkpt>
      <trkpt lat="54.475675" lon="10.295918">
        <time>2026-05-31T09:52:16.454Z</time>
        <ele>1.0</ele>
        <speed>2.369</speed>
        <course>275.0</course>
      </trkpt>
      <trkpt lat="54.475802" lon="10.293255">
        <time>2026-05-31T09:52:46.555Z</time>
        <ele>1.0</ele>
        <speed>2.079</speed>
        <course>275.0</course>
      </trkpt>
      <trkpt lat="54.475929" lon="10.290593">
        <time>2026-05-31T09:53:16.655Z</time>
        <ele>1.0</ele>
        <speed>1.792</speed>
        <course>275.0</course>
      </trkpt>
      <trkpt lat="54.476056" lon="10.287931">
        <time>2026-05-31T09:53:46.755Z</time>
        <ele>1.0</ele>
        <speed>1.554</speed>
        <course>275.0</course>
      </trkpt>
      <trkpt lat="54.476183" lon="10.285269">
        <time>2026-05-31T09:54:16.856Z</time>
        <ele>1.0</ele>
        <speed>1.402</speed>
        <course>275.0</course>
      </trkpt>
      <trkpt lat="54.476310" lon="10.282606">
        <time>2026-05-31T09:54:46.956Z</time>
        <ele>1.0</ele>
        <speed>1.359</speed>
        <course>275.0</course>
      </trkpt>
      <trkpt lat="54.476437" lon="10.279944">
        <time>2026-05-31T09:55:17.056Z</time>
        <ele>1.0</ele>
        <speed>1.434</speed>
        <course>275.0</course>
      </trkpt>
      <trkpt lat="54.476565" lon="10.277282">
        <time>2026-05-31T09:55:47.157Z</time>
        <ele>1.0</ele>
        <speed>1.613</speed>
        <course>275.0</course>
      </trkpt>
      <trkpt lat="54.476692" lon="10.274620">
        <time>2026-05-31T09:56:17.257Z</time>
        <ele>1.0</ele>
        <speed>1.869</speed>
        <course>275.0</course>
      </trkpt>
      <trkpt lat="54.476819" lon="10.271958">
        <time>2026-05-31T09:56:47.357Z</time>
        <ele>1.0</ele>
        <speed>2.162</speed>
        <course>275.0</course>
      </trkpt>
      <trkpt lat="54.476946" lon="10.269295">
        <time>2026-05-31T09:57:17.458Z</time>
        <ele>1.0</ele>
        <speed>2.444</speed>
        <course>275.0</course>
      </trkpt>
      <trkpt lat="54.477073" lon="10.266633">
        <time>2026-05-31T09:57:47.558Z</time>
        <ele>1.0</ele>
        <speed>2.672</speed>
        <course>275.0</course>
      </trkpt>
      <trkpt lat="54.477200" lon="10.263971">
        <time>2026-05-31T09:58:17.658Z</time>
        <ele>1.0</ele>
        <speed>2.810</speed>
        <course>275.0</course>
      </trkpt>
      <trkpt lat="54.477327" lon="10.261309">
        <time>2026-05-31T09:58:47.759Z</time>
        <ele>1.0</ele>
        <speed>2.835</speed>
        <course>275.0</course>
      </trkpt>
      <trkpt lat="54.477454" lon="10.258647">
        <time>2026-05-31T09:59:17.859Z</time>
        <ele>1.0</ele>
        <speed>2.744</speed>
        <course>275.0</course>
      </trkpt>
      <trkpt lat="54.477581" lon="10.255984">
        <time>2026-05-31T09:59:47.959Z</time>
        <ele>1.0</ele>
        <speed>2.551</speed>
        <course>275.0</course>
      </trkpt>
      <trkpt lat="54.477708" lon="10.253322">
        <time>2026-05-31T10:00:18.060Z</time>
        <ele>1.0</ele>
        <speed>2.287</speed>
        <course>275.0</course>
      </trkpt>
      <trkpt lat="54.477835" lon="10.250660">
        <time>2026-05-31T10:00:48.160Z</time>
        <ele>1.0</ele>
        <speed>1.993</speed>
        <course>275.0</course>
      </trkpt>
      <trkpt lat="54.477963" lon="10.247998">
        <time>2026-05-31T10:01:18.260Z</time>
        <ele>1.0</ele>
        <speed>1.716</speed>
        <course>275.0</course>
      </trkpt>
      <trkpt lat="54.478090" lon="10.245336">
        <time>2026-05-31T10:01:48.361Z</time>
        <ele>1.0</ele>
        <speed>1.499</speed>
        <course>275.0</course>
      </trkpt>
      <trkpt lat="54.478217" lon="10.242673">
        <time>2026-05-31T10:02:18.461Z</time>
        <ele>1.0</ele>
        <speed>1.377</speed>
        <course>275.0</course>
      </trkpt>
      <trkpt lat="54.478344" lon="10.240011">
        <time>2026-05-31T10:02:48.561Z</time>
        <ele>1.0</ele>
        <speed>1.369</speed>
        <course>275.0</course>
      </trkpt>
      <trkpt lat="54.478471" lon="10.237349">
        <time>2026-05-31T10:03:18.662Z</time>
        <ele>1.0</ele>
        <speed>1.476</speed>
        <course>275.0</course>
      </trkpt>
      <trkpt lat="54.478598" lon="10.234687">
        <time>2026-05-31T10:03:48.762Z</time>
        <ele>1.0</ele>
        <speed>1.682</speed>
        <course>275.0</course>
      </trkpt>
      <trkpt lat="54.478725" lon="10.232025">
        <time>2026-05-31T10:04:18.862Z</time>
        <ele>1.0</ele>
        <speed>1.953</speed>
        <course>275.0</course>
      </trkpt>
      <trkpt lat="54.478852" lon="10.229362">
        <time>2026-05-31T10:04:48.963Z</time>
        <ele>1.0</ele>
        <speed>2.247</speed>
        <course>275.0</course>
      </trkpt>
      <trkpt lat="54.478979" lon="10.226700">
        <time>2026-05-31T10:05:19.063Z</time>
        <ele>1.0</ele>
        <speed>2.518</speed>
        <course>275.0</course>
      </trkpt>
      <trkpt lat="54.479106" lon="10.224038">
        <time>2026-05-31T10:05:49.163Z</time>
        <ele>1.0</ele>
        <speed>2.723</speed>
        <course>275.0</course>
      </trkpt>
      <trkpt lat="54.479233" lon="10.221376">
        <time>2026-05-31T10:06:19.264Z</time>
        <ele>1.0</ele>
        <speed>2.829</speed>
        <course>275.0</course>
      </trkpt>
      <trkpt lat="54.479361" lon="10.218714">
        <time>2026-05-31T10:06:49.364Z</time>
        <ele>1.0</ele>
        <speed>2.820</speed>
        <course>275.0</course>
      </trkpt>
      <trkpt lat="54.479488" lon="10.216051">
        <time>2026-05-31T10:07:19.464Z</time>
        <ele>1.0</ele>
        <speed>2.697</speed>
        <course>275.0</course>
      </trkpt>
      <trkpt lat="54.479615" lon="10.213389">
        <time>2026-05-31T10:07:49.565Z</time>
        <ele>1.0</ele>
        <speed>2.480</speed>
        <course>275.0</course>
      </trkpt>
      <trkpt lat="54.479742" lon="10.210727">
        <time>2026-05-31T10:08:19.665Z</time>
        <ele>1.0</ele>
        <speed>2.202</speed>
        <course>275.0</course>
      </trkpt>
      <trkpt lat="54.479869" lon="10.208065">
        <time>2026-05-31T10:08:49.765Z</time>
        <ele>1.0</ele>
        <speed>1.908</speed>
        <course>275.0</course>
      </trkpt>
      <trkpt lat="54.479996" lon="10.205402">
        <time>2026-05-31T10:09:19.866Z</time>
        <ele>1.0</ele>
        <speed>1.645</speed>
        <course>275.0</course>
      </trkpt>
      <trkpt lat="54.480123" lon="10.202740">
        <time>2026-05-31T10:09:49.966Z</time>
        <ele>1.0</ele>
        <speed>1.453</speed>
        <course>275.0</course>
      </trkpt>
      <trkpt lat="54.480250" lon="10.200078">
        <time>2026-05-31T10:10:20.066Z</time>
        <ele>1.0</ele>
        <speed>1.363</speed>
        <course>275.0</course>
      </trkpt>
      <trkpt lat="54.480377" lon="10.197416">
        <time>2026-05-31T10:10:50.167Z</time>
        <ele>1.0</ele>
        <speed>1.389</speed>
        <course>275.0</course>
      </trkpt>
      <trkpt lat="54.480504" lon="10.194754">
        <time>2026-05-31T10:11:20.267Z</time>
        <ele>1.0</ele>
        <speed>1.527</speed>
        <course>275.0</course>
      </trkpt>
      <trkpt lat="54.480631" lon="10.192091">
        <time>2026-05-31T10:11:50.367Z</time>
        <ele>1.0</ele>
        <speed>1.756</speed>
        <course>275.0</course>
      </trkpt>
      <trkpt lat="54.480758" lon="10.189429">
        <time>2026-05-31T10:12:20.468Z</time>
        <ele>1.0</ele>
        <speed>2.039</speed>
        <course>275.0</course>
      </trkpt>
      <trkpt lat="54.480886" lon="10.186767">
        <time>2026-05-31T10:12:50.568Z</time>
        <ele>1.0</ele>
        <speed>2.331</speed>
        <course>275.0</course>
      </trkpt>
      <trkpt lat="54.481013" lon="10.184105">
        <time>2026-05-31T10:13:20.668Z</time>
        <ele>1.0</ele>
        <speed>2.587</speed>
        <course>275.0</course>
      </trkpt>
      <trkpt lat="54.481140" lon="10.181443">
        <time>2026-05-31T10:13:50.769Z</time>
        <ele>1.0</ele>
        <speed>2.765</speed>
        <course>275.0</course>
      </trkpt>
      <trkpt lat="54.481267" lon="10.178780">
        <time>2026-05-31T10:14:20.869Z</time>
        <ele>1.0</ele>
        <speed>2.839</speed>
        <course>275.0</course>
      </trkpt>
      <trkpt lat="54.481394" lon="10.176118">
        <time>2026-05-31T10:14:50.969Z</time>
        <ele>1.0</ele>
        <speed>2.795</speed>
        <course>275.0</course>
      </trkpt>
      <trkpt lat="54.481521" lon="10.173456">
        <time>2026-05-31T10:15:21.070Z</time>
        <ele>1.0</ele>
        <speed>2.642</speed>
        <course>275.0</course>
      </trkpt>
      <trkpt lat="54.481648" lon="10.170794">
        <time>2026-05-31T10:15:51.170Z</time>
        <ele>1.0</ele>
        <speed>2.403</speed>
        <course>275.0</course>
      </trkpt>
      <trkpt lat="54.481775" lon="10.168132">
        <time>2026-05-31T10:16:21.270Z</time>
        <ele>1.0</ele>
        <speed>2.116</speed>
        <course>275.0</course>
      </trkpt>
      <trkpt lat="54.481902" lon="10.165469">
        <time>2026-05-31T10:16:51.371Z</time>
        <ele>1.0</ele>
        <speed>1.826</speed>
        <course>275.0</course>
      </trkpt>
      <trkpt lat="54.482029" lon="10.162807">
        <time>2026-05-31T10:17:21.471Z</time>
        <ele>1.0</ele>
        <speed>1.580</speed>
        <course>275.0</course>
      </trkpt>
      <trkpt lat="54.482156" lon="10.160145">
        <time>2026-05-31T10:17:51.571Z</time>
        <ele>1.0</ele>
        <speed>1.415</speed>
        <course>275.0</course>
      </trkpt>
      <trkpt lat="54.482284" lon="10.157483">
        <time>2026-05-31T10:18:21.672Z</time>
        <ele>1.0</ele>
        <speed>1.358</speed>
        <course>275.0</course>
      </trkpt>
      <trkpt lat="54.482411" lon="10.154821">
        <time>2026-05-31T10:18:51.772Z</time>
        <ele>1.0</ele>
        <speed>1.418</speed>
        <course>275.0</course>
      </trkpt>
      <trkpt lat="54.482538" lon="10.152158">
        <time>2026-05-31T10:19:21.872Z</time>
        <ele>1.0</ele>
        <speed>1.586</speed>
        <course>275.0</course>
      </trkpt>
      <trkpt lat="54.482665" lon="10.149496">
        <time>2026-05-31T10:19:51.973Z</time>
        <ele>1.0</ele>
        <speed>1.835</speed>
        <course>275.0</course>
      </trkpt>
      <trkpt lat="54.482792" lon="10.146834">
        <time>2026-05-31T10:20:22.073Z</time>
        <ele>1.0</ele>
        <speed>2.125</speed>
        <course>275.0</course>
      </trkpt>
      <trkpt lat="54.482919" lon="10.144172">
        <time>2026-05-31T10:20:52.173Z</time>
        <ele>1.0</ele>
        <speed>2.411</speed>
        <course>275.0</course>
      </trkpt>
      <trkpt lat="54.483046" lon="10.141509">
        <time>2026-05-31T10:21:22.274Z</time>
        <ele>1.0</ele>
        <speed>2.648</speed>
        <course>275.0</course>
      </trkpt>
      <trkpt lat="54.483173" lon="10.138847">
        <time>2026-05-31T10:21:52.374Z</time>
        <ele>1.0</ele>
        <speed>2.798</speed>
        <course>275.0</course>
      </trkpt>
      <trkpt lat="54.483300" lon="10.136185">
        <time>2026-05-31T10:22:22.474Z</time>
        <ele>1.0</ele>
        <speed>2.838</speed>
        <course>275.0</course>
      </trkpt>
      <trkpt lat="54.483427" lon="10.133523">
        <time>2026-05-31T10:22:52.575Z</time>
        <ele>1.0</ele>
        <speed>2.761</speed>
        <course>275.0</course>
      </trkpt>
      <trkpt lat="54.483554" lon="10.130861">
        <time>2026-05-31T10:23:22.675Z</time>
        <ele>1.0</ele>
        <speed>2.580</speed>
        <course>275.0</course>
      </trkpt>
      <trkpt lat="54.483682" lon="10.128198">
        <time>2026-05-31T10:23:52.775Z</time>
        <ele>1.0</ele>
        <speed>2.322</speed>
        <course>275.0</course>
      </trkpt>
      <trkpt lat="54.483809" lon="10.125536">
        <time>2026-05-31T10:24:22.876Z</time>
        <ele>1.0</ele>
        <speed>2.030</speed>
        <course>275.0</course>
      </trkpt>
      <trkpt lat="54.483936" lon="10.122874">
        <time>2026-05-31T10:24:52.976Z</time>
        <ele>1.0</ele>
        <speed>1.748</speed>
        <course>275.0</course>
      </trkpt>
      <trkpt lat="54.484063" lon="10.120212">
        <time>2026-05-31T10:25:23.076Z</time>
        <ele>1.0</ele>
        <speed>1.522</speed>
        <course>275.0</course>
      </trkpt>
      <trkpt lat="54.484190" lon="10.117550">
        <time>2026-05-31T10:25:53.177Z</time>
        <ele>1.0</ele>
        <speed>1.386</speed>
        <course>275.0</course>
      </trkpt>
      <trkpt lat="54.484317" lon="10.114887">
        <time>2026-05-31T10:26:23.277Z</time>
        <ele>1.0</ele>
        <speed>1.364</speed>
        <course>275.0</course>
      </trkpt>
      <trkpt lat="54.484444" lon="10.112225">
        <time>2026-05-31T10:26:53.377Z</time>
        <ele>1.0</ele>
        <speed>1.457</speed>
        <course>275.0</course>
      </trkpt>
      <trkpt lat="54.484571" lon="10.109563">
        <time>2026-05-31T10:27:23.478Z</time>
        <ele>1.0</ele>
        <speed>1.652</speed>
        <course>275.0</course>
      </trkpt>
      <trkpt lat="54.484698" lon="10.106901">
        <time>2026-05-31T10:27:53.578Z</time>
        <ele>1.0</ele>
        <speed>1.917</speed>
        <course>275.0</course>
      </trkpt>
      <trkpt lat="54.484825" lon="10.104239">
        <time>2026-05-31T10:28:23.678Z</time>
        <ele>1.0</ele>
        <speed>2.211</speed>
        <course>275.0</course>
      </trkpt>
      <trkpt lat="54.484952" lon="10.101576">
        <time>2026-05-31T10:28:53.779Z</time>
        <ele>1.0</ele>
        <speed>2.488</speed>
        <course>275.0</course>
      </trkpt>
      <trkpt lat="54.485080" lon="10.098914">
        <time>2026-05-31T10:29:23.879Z</time>
        <ele>1.0</ele>
        <speed>2.702</speed>
        <course>275.0</course>
      </trkpt>
      <trkpt lat="54.485207" lon="10.096252">
        <time>2026-05-31T10:29:53.979Z</time>
        <ele>1.0</ele>
        <speed>2.822</speed>
        <course>275.0</course>
      </trkpt>
      <trkpt lat="54.485334" lon="10.093590">
        <time>2026-05-31T10:30:24.080Z</time>
        <ele>1.0</ele>
        <speed>2.828</speed>
        <course>275.0</course>
      </trkpt>
      <trkpt lat="54.485461" lon="10.090928">
        <time>2026-05-31T10:30:54.180Z</time>
        <ele>1.0</ele>
        <speed>2.718</speed>
        <course>275.0</course>
      </trkpt>
      <trkpt lat="54.485588" lon="10.088265">
        <time>2026-05-31T10:31:24.280Z</time>
        <ele>1.0</ele>
        <speed>2.511</speed>
        <course>275.0</course>
      </trkpt>
      <trkpt lat="54.485715" lon="10.085603">
        <time>2026-05-31T10:31:54.381Z</time>
        <ele>1.0</ele>
        <speed>2.238</speed>
        <course>275.0</course>
      </trkpt>
      <trkpt lat="54.485842" lon="10.082941">
        <time>2026-05-31T10:32:24.481Z</time>
        <ele>1.0</ele>
        <speed>1.944</speed>
        <course>275.0</course>
      </trkpt>
      <trkpt lat="54.485969" lon="10.080279">
        <time>2026-05-31T10:32:54.581Z</time>
        <ele>1.0</ele>
        <speed>1.674</speed>
        <course>275.0</course>
      </trkpt>
      <trkpt lat="54.486096" lon="10.077617">
        <time>2026-05-31T10:33:24.682Z</time>
        <ele>1.0</ele>
        <speed>1.471</speed>
        <course>275.0</course>
      </trkpt>
      <trkpt lat="54.486223" lon="10.074954">
        <time>2026-05-31T10:33:54.782Z</time>
        <ele>1.0</ele>
        <speed>1.368</speed>
        <course>275.0</course>
      </trkpt>
      <trkpt lat="54.486350" lon="10.072292">
        <time>2026-05-31T10:34:24.882Z</time>
        <ele>1.0</ele>
        <speed>1.379</speed>
        <course>275.0</course>
      </trkpt>
      <trkpt lat="54.486478" lon="10.069630">
        <time>2026-05-31T10:34:54.983Z</time>
        <ele>1.0</ele>
        <speed>1.505</speed>
        <course>275.0</course>
      </trkpt>
      <trkpt lat="54.486605" lon="10.066968">
        <time>2026-05-31T10:35:25.083Z</time>
        <ele>1.0</ele>
        <speed>1.724</speed>
        <course>275.0</course>
      </trkpt>
      <trkpt lat="54.486732" lon="10.064305">
        <time>2026-05-31T10:35:55.183Z</time>
        <ele>1.0</ele>
        <speed>2.002</speed>
        <course>275.0</course>
      </trkpt>
      <trkpt lat="54.486859" lon="10.061643">
        <time>2026-05-31T10:36:25.284Z</time>
        <ele>1.0</ele>
        <speed>2.296</speed>
        <course>275.0</course>
      </trkpt>
      <trkpt lat="54.486986" lon="10.058981">
        <time>2026-05-31T10:36:55.384Z</time>
        <ele>1.0</ele>
        <speed>2.558</speed>
        <course>275.0</course>
      </trkpt>
      <trkpt lat="54.487113" lon="10.056319">
        <time>2026-05-31T10:37:25.484Z</time>
        <ele>1.0</ele>
        <speed>2.748</speed>
        <course>275.0</course>
      </trkpt>
      <trkpt lat="54.487240" lon="10.053657">
        <time>2026-05-31T10:37:55.585Z</time>
        <ele>1.0</ele>
        <speed>2.836</speed>
        <course>275.0</course>
      </trkpt>
      <trkpt lat="54.487367" lon="10.050994">
        <time>2026-05-31T10:38:25.685Z</time>
        <ele>1.0</ele>
        <speed>2.807</speed>
        <course>275.0</course>
      </trkpt>
      <trkpt lat="54.487494" lon="10.048332">
        <time>2026-05-31T10:38:55.785Z</time>
        <ele>1.0</ele>
        <speed>2.666</speed>
        <course>275.0</course>
      </trkpt>
      <trkpt lat="54.487621" lon="10.045670">
        <time>2026-05-31T10:39:25.886Z</time>
        <ele>1.0</ele>
        <speed>2.436</speed>
        <course>275.0</course>
      </trkpt>
      <trkpt lat="54.487748" lon="10.043008">
        <time>2026-05-31T10:39:55.986Z</time>
        <ele>1.0</ele>
        <speed>2.153</speed>
        <course>275.0</course>
      </trkpt>
      <trkpt lat="54.487876" lon="10.040346">
        <time>2026-05-31T10:40:26.086Z</time>
        <ele>1.0</ele>
        <speed>1.861</speed>
        <course>275.0</course>
      </trkpt>
      <trkpt lat="54.488003" lon="10.037683">
        <time>2026-05-31T10:40:56.187Z</time>
        <ele>1.0</ele>
        <speed>1.606</speed>
        <course>275.0</course>
      </trkpt>
      <trkpt lat="54.488130" lon="10.035021">
        <time>2026-05-31T10:41:26.287Z</time>
        <ele>1.0</ele>
        <speed>1.430</speed>
        <course>275.0</course>
      </trkpt>
      <trkpt lat="54.488257" lon="10.032359">
        <time>2026-05-31T10:41:56.387Z</time>
        <ele>1.0</ele>
        <speed>1.359</speed>
        <course>275.0</course>
      </trkpt>
      <trkpt lat="54.488384" lon="10.029697">
        <time>2026-05-31T10:42:26.488Z</time>
        <ele>1.0</ele>
        <speed>1.405</speed>
        <course>275.0</course>
      </trkpt>
      <trkpt lat="54.488511" lon="10.027035">
        <time>2026-05-31T10:42:56.588Z</time>
        <ele>1.0</ele>
        <speed>1.560</speed>
        <course>275.0</course>
      </trkpt>
      <trkpt lat="54.488638" lon="10.024372">
        <time>2026-05-31T10:43:26.688Z</time>
        <ele>1.0</ele>
        <speed>1.801</speed>
        <course>275.0</course>
      </trkpt>
      <trkpt lat="54.488765" lon="10.021710">
        <time>2026-05-31T10:43:56.789Z</time>
        <ele>1.0</ele>
        <speed>2.088</speed>
        <course>275.0</course>
      </trkpt>
      <trkpt lat="54.488892" lon="10.019048">
        <time>2026-05-31T10:44:26.889Z</time>
        <ele>1.0</ele>
        <speed>2.378</speed>
        <course>275.0</course>
      </trkpt>
      <trkpt lat="54.489019" lon="10.016386">
        <time>2026-05-31T10:44:56.989Z</time>
        <ele>1.0</ele>
        <speed>2.623</speed>
        <course>275.0</course>
      </trkpt>
      <trkpt lat="54.489146" lon="10.013724">
        <time>2026-05-31T10:45:27.090Z</time>
        <ele>1.0</ele>
        <speed>2.786</speed>
        <course>275.0</course>
      </trkpt>
      <trkpt lat="54.489274" lon="10.011061">
        <time>2026-05-31T10:45:57.190Z</time>
        <ele>1.0</ele>
        <speed>2.840</speed>
        <course>275.0</course>
      </trkpt>
      <trkpt lat="54.489401" lon="10.008399">
        <time>2026-05-31T10:46:27.290Z</time>
        <ele>1.0</ele>
        <speed>2.777</speed>
        <course>275.0</course>
      </trkpt>
      <trkpt lat="54.489528" lon="10.005737">
        <time>2026-05-31T10:46:57.391Z</time>
        <ele>1.0</ele>
        <speed>2.607</speed>
        <course>275.0</course>
      </trkpt>
      <trkpt lat="54.489655" lon="10.003075">
        <time>2026-05-31T10:47:27.491Z</time>
        <ele>1.0</ele>
        <speed>2.357</speed>
        <course>275.0</course>
      </trkpt>
      <trkpt lat="54.489782" lon="10.000413">
        <time>2026-05-31T10:47:57.591Z</time>
        <ele>1.0</ele>
        <speed>2.066</speed>
        <course>275.0</course>
      </trkpt>
      <trkpt lat="54.489909" lon="9.997750">
        <time>2026-05-31T10:48:27.692Z</time>
        <ele>1.0</ele>
        <speed>1.781</speed>
        <course>275.0</course>
      </trkpt>
      <trkpt lat="54.490036" lon="9.995088">
        <time>2026-05-31T10:48:57.792Z</time>
        <ele>1.0</ele>
        <speed>1.545</speed>
        <course>275.0</course>
      </trkpt>
      <trkpt lat="54.490163" lon="9.992426">
        <time>2026-05-31T10:49:27.892Z</time>
        <ele>1.0</ele>
        <speed>1.397</speed>
        <course>275.0</course>
      </trkpt>
      <trkpt lat="54.490290" lon="9.989764">
        <time>2026-05-31T10:49:57.993Z</time>
        <ele>1.0</ele>
        <speed>1.360</speed>
        <course>275.0</course>
      </trkpt>
      <trkpt lat="54.490417" lon="9.987101">
        <time>2026-05-31T10:50:28.093Z</time>
        <ele>1.0</ele>
        <speed>1.440</speed>
        <course>275.0</course>
      </trkpt>
      <trkpt lat="54.490544" lon="9.984439">
        <time>2026-05-31T10:50:58.193Z</time>
        <ele>1.0</ele>
        <speed>1.623</speed>
        <course>275.0</course>
      </trkpt>
      <trkpt lat="54.490672" lon="9.981777">
        <time>2026-05-31T10:51:28.294Z</time>
        <ele>1.0</ele>
        <speed>1.882</speed>
        <course>275.0</course>
      </trkpt>
      <trkpt lat="54.490799" lon="9.979115">
        <time>2026-05-31T10:51:58.394Z</time>
        <ele>1.0</ele>
        <speed>2.175</speed>
        <course>275.0</course>
      </trkpt>
      <trkpt lat="54.490926" lon="9.976453">
        <time>2026-05-31T10:52:28.494Z</time>
        <ele>1.0</ele>
        <speed>2.456</speed>
        <course>275.0</course>
      </trkpt>
      <trkpt lat="54.491053" lon="9.973790">
        <time>2026-05-31T10:52:58.595Z</time>
        <ele>1.0</ele>
        <speed>2.680</speed>
        <course>275.0</course>
      </trkpt>
      <trkpt lat="54.491180" lon="9.971128">
        <time>2026-05-31T10:53:28.695Z</time>
        <ele>1.0</ele>
        <speed>2.813</speed>
        <course>275.0</course>
      </trkpt>
      <trkpt lat="54.491307" lon="9.968466">
        <time>2026-05-31T10:53:58.795Z</time>
        <ele>1.0</ele>
        <speed>2.833</speed>
        <course>275.0</course>
      </trkpt>
      <trkpt lat="54.491434" lon="9.965804">
        <time>2026-05-31T10:54:28.896Z</time>
        <ele>1.0</ele>
        <speed>2.737</speed>
        <course>275.0</course>
      </trkpt>
      <trkpt lat="54.491561" lon="9.963142">
        <time>2026-05-31T10:54:58.996Z</time>
        <ele>1.0</ele>
        <speed>2.541</speed>
        <course>275.0</course>
      </trkpt>
      <trkpt lat="54.491688" lon="9.960479">
        <time>2026-05-31T10:55:29.096Z</time>
        <ele>1.0</ele>
        <speed>2.274</speed>
        <course>275.0</course>
      </trkpt>
      <trkpt lat="54.491815" lon="9.957817">
        <time>2026-05-31T10:55:59.197Z</time>
        <ele>1.0</ele>
        <speed>1.980</speed>
        <course>275.0</course>
      </trkpt>
      <trkpt lat="54.491942" lon="9.955155">
        <time>2026-05-31T10:56:29.297Z</time>
        <ele>1.0</ele>
        <speed>1.705</speed>
        <course>275.0</course>
      </trkpt>
      <trkpt lat="54.492070" lon="9.952493">
        <time>2026-05-31T10:56:59.397Z</time>
        <ele>1.0</ele>
        <speed>1.492</speed>
        <course>275.0</course>
      </trkpt>
      <trkpt lat="54.492197" lon="9.949831">
        <time>2026-05-31T10:57:29.498Z</time>
        <ele>1.0</ele>
        <speed>1.374</speed>
        <course>275.0</course>
      </trkpt>
      <trkpt lat="54.492324" lon="9.947168">
        <time>2026-05-31T10:57:59.598Z</time>
        <ele>1.0</ele>
        <speed>1.372</speed>
        <course>275.0</course>
      </trkpt>
      <trkpt lat="54.492451" lon="9.944506">
        <time>2026-05-31T10:58:29.698Z</time>
        <ele>1.0</ele>
        <speed>1.483</speed>
        <course>275.0</course>
      </trkpt>
      <trkpt lat="54.492578" lon="9.941844">
        <time>2026-05-31T10:58:59.799Z</time>
        <ele>1.0</ele>
        <speed>1.693</speed>
        <course>275.0</course>
      </trkpt>
      <trkpt lat="54.492705" lon="9.939182">
        <time>2026-05-31T10:59:29.899Z</time>
        <ele>1.0</ele>
        <speed>1.966</speed>
        <course>275.0</course>
      </trkpt>
      <trkpt lat="54.493000" lon="9.933000">
        <time>2026-05-31T11:00:00.000Z</time>
        <ele>1.0</ele>
        <speed>2.260</speed>
        <course>275.0</course>
      </trkpt>
    </trkseg>
  </trk>
</gpx>
